0 ISS (ZARYA)
1 B5544U 98067A   24356.58519896  .00014389  00000-0  25222-3 0  9992
2 B5544  51.6403 106.8969 0007877   6.1421 113.2479 15.50801739487615
0 ISS (ZARYA)
1 Z9999U 98067A   24356.58519896  .00014389  00000-0  25222-3 0  9992
2 Z9999  51.6403 106.8969 0007877   6.1421 113.2479 15.50801739487615
